QIANFAN-89              
1 63175U 25046S   25196.89538335  .00000110  00000+0  15217-3 0  9996
2 63175  88.9846 335.4683 0016248 191.9920 168.0847 13.50959090 27173
QIANFAN-90              
1 63176U 25046T   25196.92415820  .00000127  00000+0  17849-3 0  9995
2 63176  88.9846 335.4375 0013284 188.5102 171.5825 13.50957199 27198
